{"type": "FeatureCollection", "features": [ {"type": "Feature", "properties": {"norad_id": 66867, "name": "STARLINK-36101", "group": "last-30-days", "lat": -39.34292041536054, "lon": -32.958013893818645, "alt_km": 346.5994146465928, "timestamp": "2025-12-18T17:50:13.701123+00:00", "meta": {"OBJECT_NAME": "STARLINK-36101", "OBJECT_ID": "2025-281V", "EPOCH": "2025-12-18T06:00:02.999808", "MEAN_MOTION": 15.74992995, "ECCENTRICITY": 0.0001529, "INCLINATION": 43.0007, "RA_OF_ASC_NODE": 88.4303, "ARG_OF_PERICENTER": 283.9279, "MEAN_ANOMALY": 44.5913, "EPHEMERIS_TYPE": 0, "CLASSIFICATION_TYPE": "U", "NORAD_CAT_ID": 66867, "ELEMENT_SET_NO": 999, "REV_AT_EPOCH": 212, "BSTAR": 0.0010541952, "MEAN_MOTION_DOT": 0.00164316, "MEAN_MOTION_DDOT": 0}, "tle": {"line1": "1 66867U 25281V   25352.25003472  .00164316  00000+0  10542-2 0  9995", "line2": "2 66867  43.0007  88.4303 0001529 283.9279  44.5913 15.74992995  2123"}}, "geometry": {"type": "Point", "coordinates": [-32.958013893818645, -39.34292041536054]}}, {"type": "Feature", "properties": {"norad_id": 66868, "name": "STARLINK-36108", "group": "last-30-days", "lat": -39.93885680213377, "lon": -30.604371315964183, "alt_km": 346.49658558417013, "timestamp": "2025-12-18T17:50:13.701133+00:00", "meta": {"OBJECT_NAME": "STARLINK-36108", "OBJECT_ID": "2025-281W", "EPOCH": "2025-12-18T06:00:02.999808", "MEAN_MOTION": 15.75016828, "ECCENTRICITY": 0.0001764, "INCLINATION": 43.0005, "RA_OF_ASC_NODE": 88.4247, "ARG_OF_PERICENTER": 247.9664, "MEAN_ANOMALY": 82.5164, "EPHEMERIS_TYPE": 0, "CLASSIFICATION_TYPE": "U", "NORAD_CAT_ID": 66868, "ELEMENT_SET_NO": 999, "REV_AT_EPOCH": 212, "BSTAR": 0.0002997245, "MEAN_MOTION_DOT": 0.00045768, "MEAN_MOTION_DDOT": 0}, "tle": {"line1": "1 66868U 25281W   25352.25003472  .00045768  00000+0  29972-3 0  9993", "line2": "2 66868  43.0005  88.4247 0001764 247.9664  82.5164 15.75016828  2121"}}, "geometry": {"type": "Point", "coordinates": [-30.604371315964183, -39.93885680213377]}}, {"type": "Feature", "properties": {"norad_id": 66869, "name": "STARLINK-36092", "group": "last-30-days", "lat": -40.486458730895386, "lon": -28.21086272469054, "alt_km": 346.69316313756644, "timestamp": "2025-12-18T17:50:13.701148+00:00", "meta": {"OBJECT_NAME": "STARLINK-36092", "OBJECT_ID": "2025-281X", "EPOCH": "2025-12-18T06:00:02.999808", "MEAN_MOTION": 15.75122009, "ECCENTRICITY": 0.00019474, "INCLINATION": 43.0006, "RA_OF_ASC_NODE": 88.4195, "ARG_OF_PERICENTER": 279.6416, "MEAN_ANOMALY": 52.711, "EPHEMERIS_TYPE": 0, "CLASSIFICATION_TYPE": "U", "NORAD_CAT_ID": 66869, "ELEMENT_SET_NO": 999, "REV_AT_EPOCH": 231, "BSTAR": -0.00067175805, "MEAN_MOTION_DOT": -0.00102796, "MEAN_MOTION_DDOT": 0}, "tle": {"line1": "1 66869U 25281X   25352.25003472 -.00102796  00000+0 -67176-3 0  9999", "line2": "2 66869  43.0006  88.4195 0001947 279.6416  52.7110 15.75122009  2315"}}, "geometry": {"type": "Point", "coordinates": [-28.21086272469054, -40.486458730895386]}}, {"type": "Feature", "properties": {"norad_id": 66870, "name": "STARLINK-36114", "group": "last-30-days", "lat": -40.97740746973825, "lon": -25.81154860904766, "alt_km": 346.53542277954784, "timestamp": "2025-12-18T17:50:13.701159+00:00", "meta": {"OBJECT_NAME": "STARLINK-36114", "OBJECT_ID": "2025-281Y", "EPOCH": "2025-12-18T06:00:02.999808", "MEAN_MOTION": 15.75046985, "ECCENTRICITY": 0.0001984, "INCLINATION": 43.0006, "RA_OF_ASC_NODE": 88.4143, "ARG_OF_PERICENTER": 265.8962, "MEAN_ANOMALY": 68.4014, "EPHEMERIS_TYPE": 0, "CLASSIFICATION_TYPE": "U", "NORAD_CAT_ID": 66870, "ELEMENT_SET_NO": 999, "REV_AT_EPOCH": 218, "BSTAR": -0.00013312056, "MEAN_MOTION_DOT": -0.00020884, "MEAN_MOTION_DDOT": 0}, "tle": {"line1": "1 66870U 25281Y   25352.25003472 -.00020884  00000+0 -13312-3 0  9991", "line2": "2 66870  43.0006  88.4143 0001984 265.8962  68.4014 15.75046985  2184"}}, "geometry": {"type": "Point", "coordinates": [-25.81154860904766, -40.97740746973825]}}, {"type": "Feature", "properties": {"norad_id": 66871, "name": "STARLINK-36095", "group": "last-30-days", "lat": -41.43174039422562, "lon": -23.294736632955008, "alt_km": 346.80458158556667, "timestamp": "2025-12-18T17:50:13.701171+00:00", "meta": {"OBJECT_NAME": "STARLINK-36095", "OBJECT_ID": "2025-281Z", "EPOCH": "2025-12-18T06:00:02.999808", "MEAN_MOTION": 15.75038459, "ECCENTRICITY": 0.00014323, "INCLINATION": 43.0006, "RA_OF_ASC_NODE": 88.4092, "ARG_OF_PERICENTER": 273.9872, "MEAN_ANOMALY": 62.227, "EPHEMERIS_TYPE": 0, "CLASSIFICATION_TYPE": "U", "NORAD_CAT_ID": 66871, "ELEMENT_SET_NO": 999, "REV_AT_EPOCH": 231, "BSTAR": 0.00025728756, "MEAN_MOTION_DOT": 0.00039226, "MEAN_MOTION_DDOT": 0}, "tle": {"line1": "1 66871U 25281Z   25352.25003472  .00039226  00000+0  25729-3 0  9995", "line2": "2 66871  43.0006  88.4092 0001432 273.9872  62.2270 15.75038459  2314"}}, "geometry": {"type": "Point", "coordinates": [-23.294736632955008, -41.43174039422562]}}, {"type": "Feature", "properties": {"norad_id": 66872, "name": "STARLINK-36082", "group": "last-30-days", "lat": -41.812886017173405, "lon": -20.865159264630528, "alt_km": 347.0504338680594, "timestamp": "2025-12-18T17:50:13.701181+00:00", "meta": {"OBJECT_NAME": "STARLINK-36082", "OBJECT_ID": "2025-281AA", "EPOCH": "2025-12-18T06:00:02.999808", "MEAN_MOTION": 15.75083318, "ECCENTRICITY": 0.00014091, "INCLINATION": 43.0007, "RA_OF_ASC_NODE": 88.4042, "ARG_OF_PERICENTER": 266.8292, "MEAN_ANOMALY": 71.2888, "EPHEMERIS_TYPE": 0, "CLASSIFICATION_TYPE": "U", "NORAD_CAT_ID": 66872, "ELEMENT_SET_NO": 999, "REV_AT_EPOCH": 218, "BSTAR": -0.00066197717, "MEAN_MOTION_DOT": -0.00101147, "MEAN_MOTION_DDOT": 0}, "tle": {"line1": "1 66872U 25281AA  25352.25003472 -.00101147  00000+0 -66198-3 0  9995", "line2": "2 66872  43.0007  88.4042 0001409 266.8292  71.2888 15.75083318  2186"}}, "geometry": {"type": "Point", "coordinates": [-20.865159264630528, -41.812886017173405]}}, {"type": "Feature", "properties": {"norad_id": 66873, "name": "STARLINK-36128", "group": "last-30-days", "lat": -42.659341786885086, "lon": -13.168874617848394, "alt_km": 346.67747905717806, "timestamp": "2025-12-18T17:50:13.701191+00:00", "meta": {"OBJECT_NAME": "STARLINK-36128", "OBJECT_ID": "2025-281AB", "EPOCH": "2025-12-18T06:00:02.999808", "MEAN_MOTION": 15.75082565, "ECCENTRICITY": 0.000184, "INCLINATION": 43.0006, "RA_OF_ASC_NODE": 88.3893, "ARG_OF_PERICENTER": 258.2876, "MEAN_ANOMALY": 85.575, "EPHEMERIS_TYPE": 0, "CLASSIFICATION_TYPE": "U", "NORAD_CAT_ID": 66873, "ELEMENT_SET_NO": 999, "REV_AT_EPOCH": 231, "BSTAR": -0.00042941904, "MEAN_MOTION_DOT": -0.00066054, "MEAN_MOTION_DDOT": 0}, "tle": {"line1": "1 66873U 25281AB  25352.25003472 -.00066054  00000+0 -42942-3 0  9994", "line2": "2 66873  43.0006  88.3893 0001840 258.2876  85.5750 15.75082565  2315"}}, "geometry": {"type": "Point", "coordinates": [-13.168874617848394, -42.659341786885086]}}, {"type": "Feature", "properties": {"norad_id": 66874, "name": "STARLINK-36129", "group": "last-30-days", "lat": -42.15538356990834, "lon": -18.29810651937475, "alt_km": 346.67390044630156, "timestamp": "2025-12-18T17:50:13.701201+00:00", "meta": {"OBJECT_NAME": "STARLINK-36129", "OBJECT_ID": "2025-281AC", "EPOCH": "2025-12-18T06:00:02.999808", "MEAN_MOTION": 15.75071001, "ECCENTRICITY": 0.00018279, "INCLINATION": 43.0007, "RA_OF_ASC_NODE": 88.3994, "ARG_OF_PERICENTER": 262.4329, "MEAN_ANOMALY": 77.6096, "EPHEMERIS_TYPE": 0, "CLASSIFICATION_TYPE": "U", "NORAD_CAT_ID": 66874, "ELEMENT_SET_NO": 999, "REV_AT_EPOCH": 231, "BSTAR": -0.00035508264, "MEAN_MOTION_DOT": -0.00054747, "MEAN_MOTION_DDOT": 0}, "tle": {"line1": "1 66874U 25281AC  25352.25003472 -.00054747  00000+0 -35508-3 0  9991", "line2": "2 66874  43.0007  88.3994 0001827 262.4329  77.6096 15.75071001  2312"}}, "geometry": {"type": "Point", "coordinates": [-18.29810651937475, -42.15538356990834]}}, {"type": "Feature", "properties": {"norad_id": 66875, "name": "STARLINK-36053", "group": "last-30-days", "lat": -42.82713127489245, "lon": -10.533115362903368, "alt_km": 346.72791610394233, "timestamp": "2025-12-18T17:50:13.701213+00:00", "meta": {"OBJECT_NAME": "STARLINK-36053", "OBJECT_ID": "2025-281AD", "EPOCH": "2025-12-18T06:00:02.999808", "MEAN_MOTION": 15.75022152, "ECCENTRICITY": 0.00014946, "INCLINATION": 43.001, "RA_OF_ASC_NODE": 88.3838, "ARG_OF_PERICENTER": 261.688, "MEAN_ANOMALY": 84.1173, "EPHEMERIS_TYPE": 0, "CLASSIFICATION_TYPE": "U", "NORAD_CAT_ID": 66875, "ELEMENT_SET_NO": 999, "REV_AT_EPOCH": 231, "BSTAR": 0.00042840342, "MEAN_MOTION_DOT": 0.00065794, "MEAN_MOTION_DDOT": 0}, "tle": {"line1": "1 66875U 25281AD  25352.25003472  .00065794  00000+0  42840-3 0  9991", "line2": "2 66875  43.0010  88.3838 0001494 261.6880  84.1173 15.75022152  2319"}}, "geometry": {"type": "Point", "coordinates": [-10.533115362903368, -42.82713127489245]}}, {"type": "Feature", "properties": {"norad_id": 66876, "name": "STARLINK-35702", "group": "last-30-days", "lat": -42.43598249315141, "lon": -15.745469824795887, "alt_km": 345.9506876623418, "timestamp": "2025-12-18T17:50:13.701226+00:00", "meta": {"OBJECT_NAME": "STARLINK-35702", "OBJECT_ID": "2025-281AE", "EPOCH": "2025-12-18T06:00:02.999808", "MEAN_MOTION": 15.75038888, "ECCENTRICITY": 0.00022972, "INCLINATION": 43.0007, "RA_OF_ASC_NODE": 88.3943, "ARG_OF_PERICENTER": 263.7255, "MEAN_ANOMALY": 78.1261, "EPHEMERIS_TYPE": 0, "CLASSIFICATION_TYPE": "U", "NORAD_CAT_ID": 66876, "ELEMENT_SET_NO": 999, "REV_AT_EPOCH": 231, "BSTAR": 0.00086147546, "MEAN_MOTION_DOT": 0.00133979, "MEAN_MOTION_DDOT": 0}, "tle": {"line1": "1 66876U 25281AE  25352.25003472  .00133979  00000+0  86148-3 0  9992", "line2": "2 66876  43.0007  88.3943 0002297 263.7255  78.1261 15.75038888  2318"}}, "geometry": {"type": "Point", "coordinates": [-15.745469824795887, -42.43598249315141]}}]}